CCSDS_OMM_VERS,COMMENT,CREATION_DATE,ORIGINATOR,OBJECT_NAME,OBJECT_ID,CENTER_NAME,REF_FRAME,TIME_SYSTEM,MEAN_ELEMENT_THEORY,EPOCH,MEAN_MOTION,ECCENTRICITY,INCLINATION,RA_OF_ASC_NODE,ARG_OF_PERICENTER,MEAN_ANOMALY,EPHEMERIS_TYPE,CLASSIFICATION_TYPE,NORAD_CAT_ID,ELEMENT_SET_NO,REV_AT_EPOCH,BSTAR,MEAN_MOTION_DOT,MEAN_MOTION_DDOT,SEMIMAJOR_AXIS,PERIOD,APOAPSIS,PERIAPSIS,OBJECT_TYPE,RCS_SIZE,COUNTRY_CODE,LAUNCH_DATE,SITE,DECAY_DATE,FILE,GP_ID,TLE_LINE0,TLE_LINE1,TLE_LINE2,NORAD_KEY,JCAT,DeepCat,Satcat,Piece,Active,Type,Name,LDate,Parent,Owner,State,SDate,ExpandedStatus,DDate,ODate,Period,Perigee,PF,Apogee,AF,Inc,IF,OpOrbit,SATCAT_KEY,DENSITY_SCORE
3.0,GENERATED VIA SPACE-TRACK.ORG API,2026-05-06T14:46:56,18 SPCS,GOES 5,1981-049A,EARTH,TEME,UTC,SGP4,2026-05-06T11:22:15.202848,1.0020432,0.0003513,9.434,315.9586,344.8467,350.6459,0,U,12472,999,12242,0.0,-1.01e-06,0.0,42183.655,1437.064,35820.34,35790.701,PAYLOAD,LARGE,US,1981-05-22,AFETR,,5177229,322299228,0 GOES 5,1 12472U 81049A   26126.47378707 -.00000101  00000-0  00000+0 0  9990,2 12472   9.4340 315.9586 0003513 344.8467 350.6459  1.00204320122428,12472,S12472,-,12472,1981-049A,P,P,GOES 5,1981 May 22,S12494,NOAA,US,1981 May 22 2253,In Earth orbit,-,2026 May  5 ,1437.063,35790, ,35820, ,9.44, ,GEO/ID,12472,1.70891878497434
3.0,GENERATED VIA SPACE-TRACK.ORG API,2026-05-06T14:56:52,18 SPCS,SBS 6,1990-091A,EARTH,TEME,UTC,SGP4,2026-05-06T11:48:15.039072,0.98992944,0.000475,12.5778,29.1248,133.7487,359.1112,0,U,20872,999,4568,0.0,-2.11e-06,0.0,42527.091,1454.649,36169.157,36128.756,PAYLOAD,LARGE,US,1990-10-12,FRGUI,,5177426,322303698,0 SBS 6,1 20872U 90091A   26126.49184073 -.00000211  00000-0  00000+0 0  9995,2 20872  12.5778  29.1248 0004750 133.7487 359.1112  0.98992944 45685,20872,S20872,-,20872,1990-091A,P,P,SBS 6,1990 Oct 12,S20875,SESINTU,US,1990 Oct 12 2319,In Earth orbit,-,2026 May  4 ,1454.636,36128, ,36168, ,12.57, ,GEO/ID,20872,1.709674356407802
3.0,GENERATED VIA SPACE-TRACK.ORG API,2026-05-06T10:08:52,18 SPCS,METEOSAT 7,1997-049B,EARTH,TEME,UTC,SGP4,2026-05-05T21:47:51.285408,0.983113,0.00089287,13.6686,15.2596,46.2771,141.7591,0,U,24932,999,10433,0.0,-1.54e-06,0.0,42723.44,1464.735,36383.452,36307.158,PAYLOAD,LARGE,EUME,1997-09-02,FRGUI,,5176958,322265247,0 METEOSAT 7,1 24932U 97049B   26125.90823247 -.00000154  00000-0  00000-0 0  9991,2 24932  13.6686  15.2596 0008929  46.2771 141.7591  0.98311300104339,24932,S24932,-,24932,1997-049B,P,P,Meteosat 7,1997 Sep  2,S24933,EUMET,I-EUM,1997 Sep  2 2245,In Earth orbit,-,2026 May  4 ,1464.74,36307, ,36383, ,13.67, ,GEO/ID,24932,1.7106298191351323
3.0,GENERATED VIA SPACE-TRACK.ORG API,2026-05-06T14:46:56,18 SPCS,KIKU 5 (ETS 5),1987-070A,EARTH,TEME,UTC,SGP4,2026-05-06T12:20:25.990080,0.99330015,0.0006846,12.8301,335.5939,55.2164,81.6851,0,U,18316,999,12842,0.0,8e-07,0.0,42430.828,1449.713,36081.741,36023.645,PAYLOAD,LARGE,JPN,1987-08-27,TNSTA,,5177302,322301583,0 KIKU 5 (ETS 5),1 18316U 87070A   26126.51418970  .00000080  00000-0  00000+0 0  9990,2 18316  12.8301 335.5939 0006846  55.2164  81.6851  0.99330015128426,18316,S18316,-,18316,1987-070A,P,P,Kiku 5,1987 Aug 27,S18320,JAXA,J,1987 Aug 27 0947,In Earth orbit,-,2026 May  5 ,1449.716,36023, ,36081, ,12.83, ,GEO/ID,18316,1.7134320586471485
3.0,GENERATED VIA SPACE-TRACK.ORG API,2026-05-06T14:56:52,18 SPCS,GALAXY 27 (TELSTAR 7),1999-052A,EARTH,TEME,UTC,SGP4,2026-05-06T13:41:19.536864,0.99021909,0.0019865,10.1648,51.7517,331.2587,195.737,0,U,25922,999,5084,0.0,-2.79e-06,0.0,42518.798,1454.224,36225.127,36056.199,PAYLOAD,LARGE,ITSO,1999-09-25,FRGUI,,5177575,322307620,0 GALAXY 27 (TELSTAR 7),1 25922U 99052A   26126.57036501 -.00000279  00000-0  00000+0 0  9997,2 25922  10.1648  51.7517 0019865 331.2587 195.7370  0.99021909 50844,25922,S25922,-,25922,1999-052A,P,P,Galaxy 27,1999 Sep 25,S25923,SESINTU,US,1999 Sep 25 0650,In Earth orbit,-,2026 May  4 ,1454.219,36056, ,36225, ,10.16, ,GEO/ID,25922,1.7137359551070934
3.0,GENERATED VIA SPACE-TRACK.ORG API,2026-05-06T14:36:32,18 SPCS,EUTE HOT BIRD 13C (HB 9),2008-065A,EARTH,TEME,UTC,SGP4,2026-05-06T11:11:21.320736,1.00271553,0.0004464,2.8435,79.6628,331.2014,291.032,0,U,33459,999,4692,0.0,-2.74e-06,0.0,42164.797,1436.1,35805.484,35767.84,PAYLOAD,LARGE,EUTE,2008-12-20,FRGUI,,5176994,322292585,0 EUTE HOT BIRD 13C (HB 9),1 33459U 08065A   26126.46621899 -.00000274  00000-0  00000+0 0  9998,2 33459   2.8435  79.6628 0004464 331.2014 291.0320  1.00271553 46920,33459,S33459,-,33459,2008-065A,P,P,EUTELSAT 50 WEST??,2008 Dec 20,S33462,EUTSA,F,2008 Dec 20 2301,In Earth orbit,-,2026 May  5 ,1436.093,35767, ,35805, ,2.84, ,GEO/S,33459,1.7171364148113033
3.0,GENERATED VIA SPACE-TRACK.ORG API,2026-05-06T15:06:46,18 SPCS,INTELSAT 6B (PAS 6B),1998-075A,EARTH,TEME,UTC,SGP4,2026-05-06T05:49:30.252000,0.99151079,0.0014507,12.2702,31.1237,171.4806,9.8488,0,U,25585,999,9957,0.0,-2e-08,0.0,42481.862,1452.329,36165.356,36042.099,PAYLOAD,LARGE,US,1998-12-22,FRGUI,,5177716,322311204,0 INTELSAT 6B (PAS 6B),1 25585U 98075A   26126.24271125 -.00000002  00000-0  00000+0 0  9997,2 25585  12.2702  31.1237 0014507 171.4806   9.8488  0.99151079 99570,25585,S25585,-,25585,1998-075A,P,P,Intelsat IS-6B,1998 Dec 22,S25586,SESINTU,US,1998 Dec 22 0128,In Earth orbit,-,2026 May  5 ,1452.328,36042, ,36165, ,12.27, ,GEO/ID,25585,1.718768936813559
3.0,GENERATED VIA SPACE-TRACK.ORG API,2026-05-06T14:46:56,18 SPCS,INTELSAT NEW DAWN,2011-016A,EARTH,TEME,UTC,SGP4,2026-05-06T09:34:00.849216,1.0027237,0.0004217,1.6983,83.1086,328.3883,284.5702,0,U,37392,999,5286,0.0,-2.16e-06,0.0,42164.568,1436.089,35804.214,35768.652,PAYLOAD,LARGE,ITSO,2011-04-22,FRGUI,,5177112,322296214,0 INTELSAT NEW DAWN,1 37392U 11016A   26126.39862094 -.00000216  00000-0  00000+0 0  9990,2 37392   1.6983  83.1086 0004217 328.3883 284.5702  1.00272370 52869,37392,S37392,-,37392,2011-016A,P,P,Intelsat IS-28,2011 Apr 22,S37394,SESINTL,L,2011 Apr 22 2211,In Earth orbit,-,2026 May  5 ,1436.102,35768, ,35804, ,1.7, ,GEO/S,37392,1.719391240815446
3.0,GENERATED VIA SPACE-TRACK.ORG API,2026-05-06T10:08:52,18 SPCS,BS-3B (YURI 3B),1991-060A,EARTH,TEME,UTC,SGP4,2026-05-06T04:06:56.996064,0.98791086,0.00027838,13.396,357.3055,161.8791,28.4222,0,U,21668,999,12889,0.0,-4e-08,0.0,42585.002,1457.621,36218.722,36195.012,PAYLOAD,LARGE,JPN,1991-08-25,TNSTA,,5176958,322264244,0 BS-3B (YURI 3B),1 21668U 91060A   26126.17149301 -.00000004  00000-0  00000-0 0  9997,2 21668  13.3960 357.3055 0002784 161.8791  28.4222  0.98791086128895,21668,S21668,-,21668,1991-060A,P,P,Yuri 3B,1991 Aug 25,S21670,JAXA/TAOJ,J,1991 Aug 25 0906,In Earth orbit,-,2026 May  5 ,1457.619,36195, ,36218, ,13.4, ,GEO/ID,21668,1.7201989837106904
3.0,GENERATED VIA SPACE-TRACK.ORG API,2026-05-06T14:56:52,18 SPCS,GARUDA 1,2000-011A,EARTH,TEME,UTC,SGP4,2026-05-06T13:21:51.618816,0.99922062,0.0002569,9.5541,64.3831,293.9357,248.1108,0,U,26089,999,4124,0.0,4e-08,0.0,42263.058,1441.123,35895.78,35874.065,PAYLOAD,LARGE,INDO,2000-02-12,TTMTR,,5177582,322307708,0 GARUDA 1,1 26089U 00011A   26126.55684744  .00000004  00000-0  00000+0 0  9990,2 26089   9.5541  64.3831 0002569 293.9357 248.1108  0.99922062 41240,26089,S26089,-,26089,2000-011A,P,P,Garuda 1,2000 Feb 12,S26090,INMRV,ID,2000 Feb 12 1550,In Earth orbit,-,2026 May  5 ,1441.13,35873, ,35896, ,9.55, ,GEO/ID,26089,1.725037703815293
3.0,GENERATED VIA SPACE-TRACK.ORG API,2026-05-06T14:56:52,18 SPCS,TDRS 4,1989-021B,EARTH,TEME,UTC,SGP4,2026-05-06T08:54:55.387296,0.98483709,0.0017795,12.8147,355.2675,319.4015,235.0971,0,U,19883,999,30763,0.0,-1.47e-06,0.0,42673.563,1462.171,36371.366,36219.491,PAYLOAD,LARGE,US,1989-03-13,AFETR,,5177400,322303368,0 TDRS 4,1 19883U 89021B   26126.37147439 -.00000147  00000-0  00000+0 0  9996,2 19883  12.8147 355.2675 0017795 319.4015 235.0971  0.98483709307633,19883,S19883,-,19883,1989-021B,P,P ---S-,TDRS 4,1989 Mar 13,S19913,GSFC,US,1989 Mar 14 0405,In Earth orbit,-,2026 May  4 ,1462.18,36219, ,36371, ,12.81, ,GEO/ID,19883,1.7260006148051865
3.0,GENERATED VIA SPACE-TRACK.ORG API,2026-05-06T14:56:52,18 SPCS,COSMOS 2282,1994-038A,EARTH,TEME,UTC,SGP4,2026-05-06T08:53:10.553856,1.00263879,0.0005493,13.8768,353.0156,118.8629,70.8661,0,U,23168,999,11658,0.0,5.8e-07,0.0,42166.948,1436.21,35811.976,35765.651,PAYLOAD,LARGE,CIS,1994-07-06,TTMTR,,5177497,322305579,0 COSMOS 2282,1 23168U 94038A   26126.37026104  .00000058  00000-0  00000+0 0  9996,2 23168  13.8768 353.0156 0005493 118.8629  70.8661  1.00263879116589,23168,S23168,-,23168,1994-038A,P,P,Kosmos-2282,1994 Jul  6,S23171,PVO,RU,1994 Jul  7 1250?,In Earth orbit,-,2026 May  4 ,1436.218,35765, ,35812, ,13.88, ,GEO/I,23168,1.7264661113223954
3.0,GENERATED VIA SPACE-TRACK.ORG API,2026-05-06T10:08:52,18 SPCS,FENGYUN 2D,2006-053A,EARTH,TEME,UTC,SGP4,2026-05-05T21:53:28.247136,0.98193653,0.00097078,10.9077,41.3627,30.4327,152.5683,0,U,29640,999,7058,0.0,-7.7e-07,0.0,42757.558,1466.49,36420.932,36337.915,PAYLOAD,LARGE,PRC,2006-12-08,XSC,,5176958,322267709,0 FENGYUN 2D,1 29640U 06053A   26125.91213249 -.00000077  00000-0  00000-0 0  9997,2 29640  10.9077  41.3627 0009708  30.4327 152.5683  0.98193653 70587,29640,S29640,-,29640,2006-053A,P,P,Feng Yun 2D,2006 Dec  8,S29641,NSMC,CN,2006 Dec  8 0116?,In Earth orbit,-,2026 May  4 ,1466.496,36337, ,36421, ,10.91, ,GEO/ID,29640,1.7273387975350376
3.0,GENERATED VIA SPACE-TRACK.ORG API,2026-05-06T10:08:52,18 SPCS,HYLAS 1,2010-065A,EARTH,TEME,UTC,SGP4,2026-05-06T02:56:18.772800,1.00273455,0.00016047,5.5376,73.5215,310.5439,257.8182,0,U,37237,999,646,0.0,9.8e-07,0.0,42164.264,1436.073,35792.895,35779.363,PAYLOAD,LARGE,UK,2010-11-26,FRGUI,,5176958,322271004,0 HYLAS 1,1 37237U 10065A   26126.12243950  .00000098  00000-0  00000-0 0  9994,2 37237   5.5376  73.5215 0001605 310.5439 257.8182  1.00273455  6466,37237,S37237,-,37237,2010-065A,P,P,Hylas,2010 Nov 26,S37239,AVANTI,UK,2010 Nov 26 1913,In Earth orbit,-,2026 May  5 ,1436.078,35779, ,35793, ,5.54, ,GEO/I,37237,1.7282106457152897
